start=new Date('2023-05-13T00:00:00.000Z').valueOf();
sats=[{"OBJECT_TYPE":"PAYLOAD","APOAPSIS":"540.451","MEAN_MOTION_DOT":"0.00000158","OBJECT_NAME":"STARLINK-3509","MEAN_MOTION":"15.08840015","TIME_SYSTEM":"UTC","MEAN_ANOMALY":"260.8221","PERIOD":"95.438","CENTER_NAME":"EARTH","SITE":"AFETR","LAUNCH_DATE":"2022-02-21","PERIAPSIS":"539.040","REV_AT_EPOCH":"6776","ARG_OF_PERICENTER":"99.2887","OBJECT_ID":"2022-016Z","INCLINATION":"53.2162","ELEMENT_SET_NO":"999","SEMIMAJOR_AXIS":"6917.880","REF_FRAME":"TEME","BSTAR":"0.00002801700000","RA_OF_ASC_NODE":"271.8919","ECCENTRICITY":"0.00010200","GP_ID":"231709351","FILE":"3906381","TLE_LINE1":"1 51737U 22016Z   23132.70172895  .00000158  00000-0  28017-4 0  9990","MEAN_MOTION_DDOT":"0.0000000000000","DECAY_DATE":null,"EPOCH":"2023-05-12T16:50:29.381280","CLASSIFICATION_TYPE":"U","MEAN_ELEMENT_THEORY":"SGP4","COUNTRY_CODE":"US","TLE_LINE2":"2 51737  53.2162 271.8919 0001020  99.2887 260.8221 15.08840015 67766","NORAD_CAT_ID":"51737","RCS_SIZE":"LARGE","EPHEMERIS_TYPE":"0"},{"MEAN_ANOMALY":"277.2153","TIME_SYSTEM":"UTC","PERIOD":"95.437","SITE":"AFETR","CENTER_NAME":"EARTH","MEAN_MOTION":"15.08843930","APOAPSIS":"540.135","MEAN_MOTION_DOT":"0.00000519","OBJECT_NAME":"STARLINK-3515","OBJECT_TYPE":"PAYLOAD","RA_OF_ASC_NODE":"271.9756","BSTAR":"0.00005067800000","REF_FRAME":"TEME","SEMIMAJOR_AXIS":"6917.868","OBJECT_ID":"2022-016AA","INCLINATION":"53.2157","ELEMENT_SET_NO":"999","LAUNCH_DATE":"2022-02-21","PERIAPSIS":"539.332","REV_AT_EPOCH":"6776","ARG_OF_PERICENTER":"82.8906","EPOCH":"2023-05-12T16:23:59.550432","DECAY_DATE":null,"MEAN_MOTION_DDOT":"0.0000000000000","TLE_LINE1":"1 51738U 22016AA  23132.68332813  .00000519  00000-0  50678-4 0  9995","ECCENTRICITY":"0.00005800","GP_ID":"231710097","FILE":"3906381","EPHEMERIS_TYPE":"0","NORAD_CAT_ID":"51738","RCS_SIZE":"LARGE","CLASSIFICATION_TYPE":"U","MEAN_ELEMENT_THEORY":"SGP4","COUNTRY_CODE":"US","TLE_LINE2":"2 51738  53.2157 271.9756 0000580  82.8906 277.2153 15.08843930 67766"},{"EPOCH":"2023-05-12T16:39:53.452224","DECAY_DATE":null,"MEAN_MOTION_DDOT":"0.0000000000000","TLE_LINE1":"1 51739U 22016AB  23132.69436866 -.00000406  00000-0 -74400-5 0  9997","ECCENTRICITY":"0.00010580","GP_ID":"231710349","FILE":"3906381","EPHEMERIS_TYPE":"0","NORAD_CAT_ID":"51739","RCS_SIZE":"LARGE","CLASSIFICATION_TYPE":"U","MEAN_ELEMENT_THEORY":"SGP4","COUNTRY_CODE":"US","TLE_LINE2":"2 51739  53.2147 271.9261 0001058 125.9071 234.2019 15.08844605 67764","MEAN_ANOMALY":"234.2019","TIME_SYSTEM":"UTC","PERIOD":"95.437","SITE":"AFETR","CENTER_NAME":"EARTH","MEAN_MOTION":"15.08844605","APOAPSIS":"540.463","MEAN_MOTION_DOT":"-0.00000406","OBJECT_NAME":"STARLINK-3516","OBJECT_TYPE":"PAYLOAD","BSTAR":"-0.00000744000000","RA_OF_ASC_NODE":"271.9261","SEMIMAJOR_AXIS":"6917.866","REF_FRAME":"TEME","OBJECT_ID":"2022-016AB","INCLINATION":"53.2147","ELEMENT_SET_NO":"999","LAUNCH_DATE":"2022-02-21","PERIAPSIS":"538.999","REV_AT_EPOCH":"6776","ARG_OF_PERICENTER":"125.9071"},{"EPOCH":"2023-05-12T16:13:23.941056","DECAY_DATE":null,"MEAN_MOTION_DDOT":"0.0000000000000","GP_ID":"231708602","ECCENTRICITY":"0.00010450","FILE":"3906381","TLE_LINE1":"1 51740U 22016AC  23132.67597154  .00000677  00000-0  60590-4 0  9997","EPHEMERIS_TYPE":"0","CLASSIFICATION_TYPE":"U","TLE_LINE2":"2 51740  53.2162 272.0063 0001045  92.9904 267.1208 15.08837461 67766","MEAN_ELEMENT_THEORY":"SGP4","COUNTRY_CODE":"US","RCS_SIZE":"LARGE","NORAD_CAT_ID":"51740","MEAN_MOTION":"15.08837461","MEAN_ANOMALY":"267.1208","TIME_SYSTEM":"UTC","SITE":"AFETR","CENTER_NAME":"EARTH","PERIOD":"95.438","OBJECT_TYPE":"PAYLOAD","MEAN_MOTION_DOT":"0.00000677","APOAPSIS":"540.476","OBJECT_NAME":"STARLINK-3500","REF_FRAME":"TEME","SEMIMAJOR_AXIS":"6917.888","BSTAR":"0.00006059000000","RA_OF_ASC_NODE":"272.0063","PERIAPSIS":"539.030","LAUNCH_DATE":"2022-02-21","REV_AT_EPOCH":"6776","ARG_OF_PERICENTER":"92.9904","OBJECT_ID":"2022-016AC","INCLINATION":"53.2162","ELEMENT_SET_NO":"999"},{"REF_FRAME":"TEME","SEMIMAJOR_AXIS":"6917.885","RA_OF_ASC_NODE":"271.9650","BSTAR":"0.00000604690000","PERIAPSIS":"539.238","LAUNCH_DATE":"2022-02-21","REV_AT_EPOCH":"6776","ARG_OF_PERICENTER":"100.7734","OBJECT_ID":"2022-016AD","ELEMENT_SET_NO":"999","INCLINATION":"53.2160","MEAN_MOTION":"15.08838613","MEAN_ANOMALY":"259.3341","TIME_SYSTEM":"UTC","CENTER_NAME":"EARTH","SITE":"AFETR","PERIOD":"95.438","OBJECT_TYPE":"PAYLOAD","MEAN_MOTION_DOT":"-0.00000191","APOAPSIS":"540.261","OBJECT_NAME":"STARLINK-3520","EPHEMERIS_TYPE":"0","CLASSIFICATION_TYPE":"U","TLE_LINE2":"2 51741  53.2160 271.9650 0000739 100.7734 259.3341 15.08838613 67764","MEAN_ELEMENT_THEORY":"SGP4","COUNTRY_CODE":"US","RCS_SIZE":"LARGE","NORAD_CAT_ID":"51741","DECAY_DATE":null,"EPOCH":"2023-05-12T16:30:40.454208","MEAN_MOTION_DDOT":"0.0000000000000","GP_ID":"231708852","ECCENTRICITY":"0.00007390","FILE":"3906381","TLE_LINE1":"1 51741U 22016AD  23132.68796822 -.00000191  00000-0  60469-5 0  9990"},{"MEAN_ANOMALY":"264.0958","TIME_SYSTEM":"UTC","SITE":"AFETR","CENTER_NAME":"EARTH","PERIOD":"95.438","MEAN_MOTION":"15.08840557","MEAN_MOTION_DOT":"0.00000069","APOAPSIS":"540.293","OBJECT_NAME":"STARLINK-3521","OBJECT_TYPE":"PAYLOAD","BSTAR":"0.00002237800000","RA_OF_ASC_NODE":"272.0074","REF_FRAME":"TEME","SEMIMAJOR_AXIS":"6917.879","OBJECT_ID":"2022-016AE","INCLINATION":"53.2171","ELEMENT_SET_NO":"999","PERIAPSIS":"539.194","LAUNCH_DATE":"2022-02-21","ARG_OF_PERICENTER":"96.0125","REV_AT_EPOCH":"6776","EPOCH":"2023-05-12T16:04:10.263072","DECAY_DATE":null,"MEAN_MOTION_DDOT":"0.0000000000000","TLE_LINE1":"1 51742U 22016AE  23132.66956323  .00000069  00000-0  22378-4 0  9992","GP_ID":"231709598","ECCENTRICITY":"0.00007940","FILE":"3906381","EPHEMERIS_TYPE":"0","RCS_SIZE":"LARGE","NORAD_CAT_ID":"51742","CLASSIFICATION_TYPE":"U","TLE_LINE2":"2 51742  53.2171 272.0074 0000794  96.0125 264.0958 15.08840557 67768","COUNTRY_CODE":"US","MEAN_ELEMENT_THEORY":"SGP4"},{"OBJECT_TYPE":"PAYLOAD","OBJECT_NAME":"STARLINK-3512","APOAPSIS":"540.289","MEAN_MOTION_DOT":"0.00000980","MEAN_MOTION":"15.08839499","PERIOD":"95.438","CENTER_NAME":"EARTH","SITE":"AFETR","MEAN_ANOMALY":"198.8590","TIME_SYSTEM":"UTC","REV_AT_EPOCH":"6789","ARG_OF_PERICENTER":"161.2431","LAUNCH_DATE":"2022-02-21","PERIAPSIS":"539.205","ELEMENT_SET_NO":"999","INCLINATION":"53.2163","OBJECT_ID":"2022-016AF","REF_FRAME":"TEME","SEMIMAJOR_AXIS":"6917.882","RA_OF_ASC_NODE":"262.2072","BSTAR":"0.00007963100000","FILE":"3906381","ECCENTRICITY":"0.00007830","GP_ID":"231709850","TLE_LINE1":"1 51743U 22016AF  23132.63368539  .00000980  00000-0  79631-4 0  9992","DECAY_DATE":null,"EPOCH":"2023-05-12T15:12:30.417696","MEAN_MOTION_DDOT":"0.0000000000000","COUNTRY_CODE":"US","MEAN_ELEMENT_THEORY":"SGP4","TLE_LINE2":"2 51743  53.2163 262.2072 0000783 161.2431 198.8590 15.08839499 67895","CLASSIFICATION_TYPE":"U","NORAD_CAT_ID":"51743","RCS_SIZE":"LARGE","EPHEMERIS_TYPE":"0"},{"RA_OF_ASC_NODE":"272.0679","BSTAR":"0.00007357600000","REF_FRAME":"TEME","SEMIMAJOR_AXIS":"6917.871","ELEMENT_SET_NO":"999","INCLINATION":"53.2158","OBJECT_ID":"2022-016AG","ARG_OF_PERICENTER":"72.6629","REV_AT_EPOCH":"6776","LAUNCH_DATE":"2022-02-21","PERIAPSIS":"539.301","PERIOD":"95.437","CENTER_NAME":"EARTH","SITE":"AFETR","MEAN_ANOMALY":"287.4432","TIME_SYSTEM":"UTC","MEAN_MOTION":"15.08843219","OBJECT_NAME":"STARLINK-3452","APOAPSIS":"540.170","MEAN_MOTION_DOT":"0.00000884","OBJECT_TYPE":"PAYLOAD","EPHEMERIS_TYPE":"0","NORAD_CAT_ID":"51744","RCS_SIZE":"LARGE","MEAN_ELEMENT_THEORY":"SGP4","COUNTRY_CODE":"US","TLE_LINE2":"2 51744  53.2158 272.0679 0000628  72.6629 287.4432 15.08843219 67765","CLASSIFICATION_TYPE":"U","DECAY_DATE":null,"MEAN_MOTION_DDOT":"0.0000000000000","EPOCH":"2023-05-12T16:02:48.147648","TLE_LINE1":"1 51744U 22016AG  23132.66861282  .00000884  00000-0  73576-4 0  9994","FILE":"3906381","ECCENTRICITY":"0.00006280","GP_ID":"231709102"},{"SEMIMAJOR_AXIS":"6917.885","REF_FRAME":"TEME","RA_OF_ASC_NODE":"271.9912","BSTAR":"0.00006273000000","PERIAPSIS":"539.046","LAUNCH_DATE":"2022-02-21","ARG_OF_PERICENTER":"80.4726","REV_AT_EPOCH":"6776","OBJECT_ID":"2022-016AH","ELEMENT_SET_NO":"999","INCLINATION":"53.2151","MEAN_MOTION":"15.08838606","TIME_SYSTEM":"UTC","MEAN_ANOMALY":"279.6381","CENTER_NAME":"EARTH","SITE":"AFETR","PERIOD":"95.438","OBJECT_TYPE":"PAYLOAD","MEAN_MOTION_DOT":"0.00000711","APOAPSIS":"540.453","OBJECT_NAME":"STARLINK-3449","EPHEMERIS_TYPE":"0","CLASSIFICATION_TYPE":"U","TLE_LINE2":"2 51745  53.2151 271.9912 0001017  80.4726 279.6381 15.08838606 67765","COUNTRY_CODE":"US","MEAN_ELEMENT_THEORY":"SGP4","RCS_SIZE":"LARGE","NORAD_CAT_ID":"51745","DECAY_DATE":null,"EPOCH":"2023-05-12T16:18:41.791104","MEAN_MOTION_DDOT":"0.0000000000000","GP_ID":"231709352","ECCENTRICITY":"0.00010170","FILE":"3906381","TLE_LINE1":"1 51745U 22016AH  23132.67965036  .00000711  00000-0  62730-4 0  9997"},{"DECAY_DATE":null,"MEAN_MOTION_DDOT":"0.0000000000000","EPOCH":"2023-05-12T15:07:12.804384","TLE_LINE1":"1 51746U 22016AJ  23132.63000931 -.00000140  00000-0  92848-5 0  9999","ECCENTRICITY":"0.00008380","GP_ID":"231710098","FILE":"3906381","EPHEMERIS_TYPE":"0","NORAD_CAT_ID":"51746","RCS_SIZE":"LARGE","CLASSIFICATION_TYPE":"U","MEAN_ELEMENT_THEORY":"SGP4","COUNTRY_CODE":"US","TLE_LINE2":"2 51746  53.2175 262.2255 0000838  88.3059 271.8030 15.08843009 67893","TIME_SYSTEM":"UTC","MEAN_ANOMALY":"271.8030","PERIOD":"95.437","SITE":"AFETR","CENTER_NAME":"EARTH","MEAN_MOTION":"15.08843009","APOAPSIS":"540.316","MEAN_MOTION_DOT":"-0.00000140","OBJECT_NAME":"STARLINK-3502","OBJECT_TYPE":"PAYLOAD","RA_OF_ASC_NODE":"262.2255","BSTAR":"0.00000928480000","SEMIMAJOR_AXIS":"6917.871","REF_FRAME":"TEME","OBJECT_ID":"2022-016AJ","INCLINATION":"53.2175","ELEMENT_SET_NO":"999","LAUNCH_DATE":"2022-02-21","PERIAPSIS":"539.156","REV_AT_EPOCH":"6789","ARG_OF_PERICENTER":"88.3059"}];
